1 27540U 02048A   20353.02383066  .00000428  00000-0  00000+0 0  9996
2 27540  59.0418  98.9218 8994748 296.3743   1.9920  0.37565348 19087